NORAD_CAT_ID,OBJECT_NAME,OBJECT_TYPE,EPOCH,MEAN_MOTION,ECCENTRICITY,INCLINATION,RA_OF_ASC_NODE,ARG_OF_PERICENTER,MEAN_ANOMALY,BSTAR,MEAN_MOTION_DOT,MEAN_MOTION_DDOT,TLE_LINE0,TLE_LINE1,TLE_LINE2,SEMIMAJOR_AXIS,PERIOD,APOGEE,PERIGEE,DECAYED
53774.0,STARLINK-4719,PAYLOAD,2023-06-12 12:17:24,15.08833918,0.0001158,53.2167,98.4634,92.573,267.5394,0.00011413,1.529e-05,0.0,0 STARLINK-4719,1 53774U 22111B   23163.51209082  .00001529  00000-0  11413-3 0  9995,2 53774  53.2167  98.4634 0001158  92.5730 267.5394 15.08833918 42566,6917.899,95.438,540.565,538.963,0.0
53774.0,STARLINK-4719,PAYLOAD,2023-06-13 02:35:53,15.08832005,0.0001199,53.2157,95.7848,95.375,264.7379,4.2255e-05,3.85e-06,0.0,0 STARLINK-4719,1 53774U 22111B   23164.10825501  .00000385  00000-0  42255-4 0  9999,2 53774  53.2157  95.7848 0001199  95.3750 264.7379 15.08832005 41691,6917.905,95.438,540.599,538.94,0.0
53774.0,STARLINK-4719,PAYLOAD,2023-06-13 18:29:44,15.0883925,0.0001006,53.2169,92.8149,100.8912,259.2193,-1.33e-05,-4.99e-06,0.0,0 STARLINK-4719,1 53774U 22111B   23164.77065459 -.00000499  00000-0 -13300-4 0  9997,2 53774  53.2169  92.8149 0001006 100.8912 259.2193 15.08839250 42755,6917.883,95.438,540.444,539.052,0.0
53774.0,STARLINK-4719,PAYLOAD,2023-06-14 02:26:39,15.08842499,9.78e-05,53.2169,91.3283,100.7158,259.3944,1.5863e-05,-3.5e-07,0.0,0 STARLINK-4719,1 53774U 22111B   23165.10185155 -.00000035  00000-0  15863-4 0  9992,2 53774  53.2169  91.3283 0000978 100.7158 259.3944 15.08842499 41849,6917.873,95.437,540.414,539.061,0.0
53774.0,STARLINK-4719,PAYLOAD,2023-06-14 04:02:02,15.08844562,0.0001002,53.217,91.0303,96.0901,264.0205,3.6999e-05,3.01e-06,0.0,0 STARLINK-4719,1 53774U 22111B   23165.16808995  .00000301  00000-0  36999-4 0  9990,2 53774  53.2170  91.0303 0001002  96.0901 264.0205 15.08844562 42817,6917.866,95.437,540.425,539.038,0.0
53774.0,STARLINK-4719,PAYLOAD,2023-06-15 02:17:27,15.08832856,9.25e-05,53.217,86.8673,99.3657,260.744,1.9564e-05,2.4e-07,0.0,0 STARLINK-4719,1 53774U 22111B   23166.09545996  .00000024  00000-0  19564-4 0  9993,2 53774  53.2170  86.8673 0000925  99.3657 260.7440 15.08832856 41991,6917.902,95.438,540.407,539.127,0.0
53774.0,STARLINK-4719,PAYLOAD,2023-06-15 05:28:13,15.08835406,8.37e-05,53.2164,86.2711,96.798,263.3108,1.3102e-05,-7.9e-07,0.0,0 STARLINK-4719,1 53774U 22111B   23166.22793844 -.00000079  00000-0  13102-4 0  9998,2 53774  53.2164  86.2711 0000837  96.7980 263.3108 15.08835406 42976,6917.894,95.438,540.338,539.18,0.0
53774.0,STARLINK-4719,PAYLOAD,2023-06-15 18:11:17,15.08910355,5.45e-05,53.216,83.8923,102.8593,257.2461,-0.00083923,-0.00013645,0.0,0 STARLINK-4719,1 53774U 22111B   23166.75784721 -.00013645  00000-0 -83923-3 0  9991,2 53774  53.2160  83.8923 0000545 102.8593 257.2461 15.08910355 42099,6917.665,95.433,539.907,539.153,0.0
53774.0,STARLINK-4719,PAYLOAD,2023-06-16 00:32:50,15.088446,9.47e-05,53.2156,82.7031,111.7708,248.3385,8.328e-05,1.038e-05,0.0,0 STARLINK-4719,1 53774U 22111B   23167.02281057  .00001038  00000-0  83280-4 0  9994,2 53774  53.2156  82.7031 0000947 111.7708 248.3385 15.08844600 42135,6917.866,95.437,540.386,539.076,0.0
53774.0,STARLINK-4719,PAYLOAD,2023-06-16 03:43:36,15.0885324,9.57e-05,53.2166,82.108,86.8338,273.2764,0.00014756,2.062e-05,0.0,0 STARLINK-4719,1 53774U 22111B   23167.15528378  .00002062  00000-0  14756-3 0  9997,2 53774  53.2166  82.1080 0000957  86.8338 273.2764 15.08853240 42156,6917.84,95.437,540.367,539.043,0.0
53774.0,STARLINK-4719,PAYLOAD,2023-06-16 11:40:33,15.08837902,0.000149,53.2167,80.6213,80.7373,279.3788,2.069e-06,-2.55e-06,0.0,0 STARLINK-4719,1 53774U 22111B   23167.48649904 -.00000255  00000-0  20690-5 0  9991,2 53774  53.2167  80.6213 0001490  80.7373 279.3788 15.08837902 43165,6917.887,95.438,540.783,538.721,0.0
53774.0,STARLINK-4719,PAYLOAD,2023-06-16 18:02:06,15.08838447,0.000121,53.2159,79.4331,73.4456,286.6669,8.6203e-06,-1.51e-06,0.0,0 STARLINK-4719,1 53774U 22111B   23167.75145878 -.00000151  00000-0  86203-5 0  9999,2 53774  53.2159  79.4331 0001210  73.4456 286.6669 15.08838447 43203,6917.885,95.438,540.587,538.913,0.0
53774.0,STARLINK-4719,PAYLOAD,2023-06-17 11:31:20,15.08839306,9.67e-05,53.2166,76.1615,76.3417,283.7683,1.0395e-05,-1.22e-06,0.0,0 STARLINK-4719,1 53774U 22111B   23168.48009779 -.00000122  00000-0  10395-4 0  9995,2 53774  53.2166  76.1615 0000967  76.3417 283.7683 15.08839306 43318,6917.883,95.438,540.416,539.079,0.0
53774.0,STARLINK-4719,PAYLOAD,2023-06-17 17:52:53,15.08833824,0.0001028,53.2166,74.9705,96.941,263.1699,-2.018e-05,-6.09e-06,0.0,0 STARLINK-4719,1 53774U 22111B   23168.74506295 -.00000609  00000-0 -20180-4 0  9993,2 53774  53.2166  74.9705 0001028  96.9410 263.1699 15.08833824 42399,6917.899,95.438,540.475,539.053,0.0
53774.0,STARLINK-4719,PAYLOAD,2023-06-18 03:25:11,15.08842373,0.0001084,53.2169,73.1865,91.9952,268.1164,-4.3483e-05,-9.8e-06,0.0,0 STARLINK-4719,1 53774U 22111B   23169.14249919 -.00000980  00000-0 -43483-4 0  9998,2 53774  53.2169  73.1865 0001084  91.9952 268.1164 15.08842373 42456,6917.873,95.437,540.488,538.988,0.0
53774.0,STARLINK-4719,PAYLOAD,2023-06-18 17:43:40,15.08840198,0.0001283,53.2171,70.5112,81.2828,278.8309,9.5883e-05,1.238e-05,0.0,0 STARLINK-4719,1 53774U 22111B   23169.73865770  .00001238  00000-0  95883-4 0  9998,2 53774  53.2171  70.5112 0001283  81.2828 278.8309 15.08840198 43509,6917.88,95.438,540.632,538.857,0.0
53774.0,STARLINK-4719,PAYLOAD,2023-06-19 03:15:58,15.08851019,9.58e-05,53.2171,68.727,76.6936,283.4163,0.00015539,2.187e-05,0.0,0 STARLINK-4719,1 53774U 22111B   23170.13608851  .00002187  00000-0  15539-3 0  9992,2 53774  53.2171  68.7270 0000958  76.6936 283.4163 15.08851019 42603,6917.847,95.437,540.374,539.049,0.0
53774.0,STARLINK-4719,PAYLOAD,2023-06-20 03:06:45,15.08840911,0.0001044,53.2165,64.2653,86.8529,273.2583,8.8127e-05,1.115e-05,0.0,0 STARLINK-4719,1 53774U 22111B   23171.12969827  .00001115  00000-0  88127-4 0  9999,2 53774  53.2165  64.2653 0001044  86.8529 273.2583 15.08840911 42758,6917.878,95.437,540.465,539.02,0.0
53774.0,STARLINK-4719,PAYLOAD,2023-06-20 09:28:18,15.08841425,0.0001054,53.2169,63.0757,86.3321,273.7792,8.1371e-05,1.008e-05,0.0,0 STARLINK-4719,1 53774U 22111B   23171.39465798  .00001008  00000-0  81371-4 0  9991,2 53774  53.2169  63.0757 0001054  86.3321 273.7792 15.08841425 43759,6917.876,95.437,540.47,539.012,0.0
53774.0,STARLINK-4719,PAYLOAD,2023-06-20 20:36:00,15.08841937,0.000118,53.218,60.9962,97.2337,262.8789,-4.4079e-06,-3.58e-06,0.0,0 STARLINK-4719,1 53774U 22111B   23171.85834188 -.00000358  00000-0 -44079-5 0  9999,2 53774  53.2180  60.9962 0001180  97.2337 262.8789 15.08841937 43825,6917.874,95.437,540.556,538.923,0.0
53774.0,STARLINK-4719,PAYLOAD,2023-06-20 23:46:46,15.08843773,0.0001156,53.2184,60.4022,94.5149,265.5975,1.2869e-05,-8.3e-07,0.0,0 STARLINK-4719,1 53774U 22111B   23171.99081896 -.00000083  00000-0  12869-4 0  9999,2 53774  53.2184  60.4022 0001156  94.5149 265.5975 15.08843773 43844,6917.869,95.437,540.534,538.934,0.0
53774.0,STARLINK-4719,PAYLOAD,2023-06-21 20:26:47,15.08839991,0.000102,53.2175,56.5366,97.1556,262.9552,1.5183e-05,-4.6e-07,0.0,0 STARLINK-4719,1 53774U 22111B   23172.85194321 -.00000046  00000-0  15183-4 0  9994,2 53774  53.2175  56.5366 0001020  97.1556 262.9552 15.08839991 43975,6917.88,95.438,540.451,539.04,0.0
53774.0,STARLINK-4719,PAYLOAD,2023-06-22 02:48:19,15.08845336,0.0001102,53.2165,55.3461,93.0849,267.0269,8.1676e-05,1.012e-05,0.0,0 STARLINK-4719,1 53774U 22111B   23173.11689686  .00001012  00000-0  81676-4 0  9990,2 53774  53.2165  55.3461 0001102  93.0849 267.0269 15.08845336 43058,6917.864,95.437,540.491,538.967,0.0
53774.0,STARLINK-4719,PAYLOAD,2023-06-22 09:09:52,15.08838076,0.0001082,53.2165,54.1556,94.4611,265.6504,-9.1795e-06,-4.34e-06,0.0,0 STARLINK-4719,1 53774U 22111B   23173.38186095 -.00000434  00000-0 -91795-5 0  9998,2 53774  53.2165  54.1556 0001082  94.4611 265.6504 15.08838076 43092,6917.886,95.438,540.5,539.003,0.0
53774.0,STARLINK-4719,PAYLOAD,2023-06-23 01:03:43,15.08848022,0.0001237,53.2171,51.1809,101.3726,258.7405,0.00011683,1.572e-05,0.0,0 STARLINK-4719,1 53774U 22111B   23174.04425733  .00001572  00000-0  11683-3 0  9995,2 53774  53.2171  51.1809 0001237 101.3726 258.7405 15.08848022 43190,6917.856,95.437,540.577,538.865,0.0
53774.0,STARLINK-4719,PAYLOAD,2023-06-23 09:00:40,15.08835826,0.000146,53.2171,49.695,88.3768,271.7391,7.6502e-05,9.3e-06,0.0,0 STARLINK-4719,1 53774U 22111B   23174.37546608  .00000930  00000-0  76502-4 0  9995,2 53774  53.2171  49.6950 0001460  88.3768 271.7391 15.08835826 43240,6917.893,95.438,540.768,538.748,0.0
53774.0,STARLINK-4719,PAYLOAD,2023-06-25 00:45:18,15.08848694,0.0001142,53.2167,42.261,92.9216,267.1907,0.00015627,2.201e-05,0.0,0 STARLINK-4719,1 53774U 22111B   23176.03146092  .00002201  00000-0  15627-3 0  9996,2 53774  53.2167  42.2610 0001142  92.9216 267.1907 15.08848694 43499,6917.854,95.437,540.509,538.929,0.0
53774.0,STARLINK-4719,PAYLOAD,2023-06-25 15:03:46,15.08840648,0.0001234,53.215,39.5856,92.3396,267.7738,0.0001468,2.049e-05,0.0,0 STARLINK-4719,1 53774U 22111B   23176.62762476  .00002049  00000-0  14680-3 0  9999,2 53774  53.2150  39.5856 0001234  92.3396 267.7738 15.08840648 43586,6917.878,95.438,540.597,538.89,0.0
53774.0,STARLINK-4719,PAYLOAD,2023-06-26 21:16:06,15.08838157,0.0001168,53.2165,33.936,87.3797,272.7329,3.4438e-05,2.6e-06,0.0,0 STARLINK-4719,1 53774U 22111B   23177.88618805  .00000260  00000-0  34438-4 0  9991,2 53774  53.2165  33.9360 0001168  87.3797 272.7329 15.08838157 43770,6917.886,95.438,540.559,538.943,0.0
53774.0,STARLINK-4719,PAYLOAD,2023-06-28 17:46:54,15.08834753,0.000103,53.2166,25.6107,87.2376,272.8734,2.6386e-05,1.32e-06,0.0,0 STARLINK-4719,1 53774U 22111B   23179.74091224  .00000132  00000-0  26386-4 0  9999,2 53774  53.2166  25.6107 0001030  87.2376 272.8734 15.08834753 44059,6917.896,95.438,540.474,539.049,0.0
